start=new Date('2021-12-22T00:00:00.000Z').valueOf();
sats=[{"ELEMENT_SET_NO":"999","EPHEMERIS_TYPE":"0","OBJECT_ID":"2020-062L","MEAN_MOTION":"15.06404949","NORAD_CAT_ID":"46335","PERIAPSIS":"546.205","EPOCH":"2021-12-21T18:46:01.052832","MEAN_ELEMENT_THEORY":"SGP4","ARG_OF_PERICENTER":"93.6110","GP_ID":"192152688","MEAN_ANOMALY":"266.5043","SITE":"AFETR","TLE_LINE2":"2 46335  53.0554  85.0380 0001434  93.6110 266.5043 15.06404949 72547","COUNTRY_CODE":"US","FILE":"3246612","SEMIMAJOR_AXIS":"6925.333","CLASSIFICATION_TYPE":"U","ECCENTRICITY":"0.00014340","BSTAR":"-0.00003400700000","INCLINATION":"53.0554","TIME_SYSTEM":"UTC","LAUNCH_DATE":"2020-09-03","RCS_SIZE":"LARGE","RA_OF_ASC_NODE":"85.0380","CENTER_NAME":"EARTH","APOAPSIS":"548.191","MEAN_MOTION_DOT":"-0.00000788","DECAY_DATE":null,"OBJECT_NAME":"STARLINK-1727","REV_AT_EPOCH":"7254","TLE_LINE1":"1 46335U 20062L   21355.78195663 -.00000788  00000-0 -34007-4 0  9995","MEAN_MOTION_DDOT":"0.0000000000000","PERIOD":"95.592","OBJECT_TYPE":"PAYLOAD","REF_FRAME":"TEME"},{"ECCENTRICITY":"0.00011820","SEMIMAJOR_AXIS":"6925.330","FILE":"3246784","CLASSIFICATION_TYPE":"U","COUNTRY_CODE":"US","MEAN_ANOMALY":"278.0967","TLE_LINE2":"2 46336  53.0560  65.6891 0001182  82.0157 278.0967 15.06405949 72611","SITE":"AFETR","MEAN_ELEMENT_THEORY":"SGP4","EPOCH":"2021-12-21T15:21:40.688928","GP_ID":"192178671","ARG_OF_PERICENTER":"82.0157","MEAN_MOTION":"15.06405949","OBJECT_ID":"2020-062M","PERIAPSIS":"546.377","NORAD_CAT_ID":"46336","ELEMENT_SET_NO":"999","EPHEMERIS_TYPE":"0","REF_FRAME":"TEME","OBJECT_TYPE":"PAYLOAD","TLE_LINE1":"1 46336U 20062M   21355.64005427  .00000562  00000-0  56605-4 0  9995","PERIOD":"95.592","MEAN_MOTION_DDOT":"0.0000000000000","REV_AT_EPOCH":"7261","OBJECT_NAME":"STARLINK-1738","DECAY_DATE":null,"APOAPSIS":"548.014","MEAN_MOTION_DOT":"0.00000562","RCS_SIZE":"LARGE","CENTER_NAME":"EARTH","RA_OF_ASC_NODE":"65.6891","INCLINATION":"53.0560","BSTAR":"0.00005660500000","LAUNCH_DATE":"2020-09-03","TIME_SYSTEM":"UTC"},{"EPOCH":"2021-12-21T17:18:27.109440","MEAN_ELEMENT_THEORY":"SGP4","ARG_OF_PERICENTER":"89.1005","GP_ID":"192177919","MEAN_ANOMALY":"271.0119","SITE":"AFETR","TLE_LINE2":"2 46337  53.0533  65.3085 0001174  89.1005 271.0119 15.06406899 72634","ELEMENT_SET_NO":"999","EPHEMERIS_TYPE":"0","OBJECT_ID":"2020-062N","MEAN_MOTION":"15.06406899","NORAD_CAT_ID":"46337","PERIAPSIS":"546.379","FILE":"3246784","SEMIMAJOR_AXIS":"6925.327","CLASSIFICATION_TYPE":"U","ECCENTRICITY":"0.00011740","COUNTRY_CODE":"US","RCS_SIZE":"LARGE","RA_OF_ASC_NODE":"65.3085","CENTER_NAME":"EARTH","APOAPSIS":"548.005","MEAN_MOTION_DOT":"0.00001933","BSTAR":"0.00014858000000","INCLINATION":"53.0533","TIME_SYSTEM":"UTC","LAUNCH_DATE":"2020-09-03","TLE_LINE1":"1 46337U 20062N   21355.72114710  .00001933  00000-0  14858-3 0  9997","MEAN_MOTION_DDOT":"0.0000000000000","PERIOD":"95.592","OBJECT_TYPE":"PAYLOAD","REF_FRAME":"TEME","DECAY_DATE":null,"OBJECT_NAME":"STARLINK-1750","REV_AT_EPOCH":"7263"},{"OBJECT_NAME":"STARLINK-1752","REV_AT_EPOCH":"7253","DECAY_DATE":null,"OBJECT_TYPE":"PAYLOAD","REF_FRAME":"TEME","TLE_LINE1":"1 46338U 20062P   21355.77090295 -.00005286  00000-0 -33621-3 0  9990","MEAN_MOTION_DDOT":"0.0000000000000","PERIOD":"95.592","BSTAR":"-0.00033621000000","INCLINATION":"53.0547","TIME_SYSTEM":"UTC","LAUNCH_DATE":"2020-09-03","APOAPSIS":"548.236","MEAN_MOTION_DOT":"-0.00005286","RCS_SIZE":"LARGE","RA_OF_ASC_NODE":"85.0831","CENTER_NAME":"EARTH","COUNTRY_CODE":"US","ECCENTRICITY":"0.00014690","FILE":"3246604","SEMIMAJOR_AXIS":"6925.353","CLASSIFICATION_TYPE":"U","OBJECT_ID":"2020-062P","MEAN_MOTION":"15.06398467","NORAD_CAT_ID":"46338","PERIAPSIS":"546.201","ELEMENT_SET_NO":"999","EPHEMERIS_TYPE":"0","MEAN_ANOMALY":"282.3045","TLE_LINE2":"2 46338  53.0547  85.0831 0001469  77.8109 282.3045 15.06398467 72537","SITE":"AFETR","MEAN_ELEMENT_THEORY":"SGP4","EPOCH":"2021-12-21T18:30:06.014880","ARG_OF_PERICENTER":"77.8109","GP_ID":"192152431"},{"MEAN_ANOMALY":"268.7016","SITE":"AFETR","TLE_LINE2":"2 46340  53.0532  85.2060 0001468  91.4141 268.7016 15.06410929 72351","MEAN_ELEMENT_THEORY":"SGP4","EPOCH":"2021-12-21T17:51:35.520768","ARG_OF_PERICENTER":"91.4141","GP_ID":"192178918","OBJECT_ID":"2020-062R","MEAN_MOTION":"15.06410929","NORAD_CAT_ID":"46340","PERIAPSIS":"546.163","ELEMENT_SET_NO":"999","EPHEMERIS_TYPE":"0","ECCENTRICITY":"0.00014680","FILE":"3246784","SEMIMAJOR_AXIS":"6925.315","CLASSIFICATION_TYPE":"U","COUNTRY_CODE":"US","APOAPSIS":"548.197","MEAN_MOTION_DOT":"-0.00001630","RCS_SIZE":"LARGE","RA_OF_ASC_NODE":"85.2060","CENTER_NAME":"EARTH","BSTAR":"-0.00009055700000","INCLINATION":"53.0532","TIME_SYSTEM":"UTC","LAUNCH_DATE":"2020-09-03","OBJECT_TYPE":"PAYLOAD","REF_FRAME":"TEME","TLE_LINE1":"1 46340U 20062R   21355.74416112 -.00001630  00000-0 -90557-4 0  9991","MEAN_MOTION_DDOT":"0.0000000000000","PERIOD":"95.591","OBJECT_NAME":"STARLINK-1759","REV_AT_EPOCH":"7235","DECAY_DATE":null},{"LAUNCH_DATE":"2020-09-03","TIME_SYSTEM":"UTC","INCLINATION":"53.0529","BSTAR":"-0.00005442200000","CENTER_NAME":"EARTH","RA_OF_ASC_NODE":"65.4834","RCS_SIZE":"LARGE","MEAN_MOTION_DOT":"-0.00001092","APOAPSIS":"548.205","DECAY_DATE":null,"REV_AT_EPOCH":"7263","OBJECT_NAME":"STARLINK-1760","PERIOD":"95.592","MEAN_MOTION_DDOT":"0.0000000000000","TLE_LINE1":"1 46341U 20062S   21355.68428537 -.00001092  00000-0 -54422-4 0  9992","REF_FRAME":"TEME","OBJECT_TYPE":"PAYLOAD","EPHEMERIS_TYPE":"0","ELEMENT_SET_NO":"999","PERIAPSIS":"546.220","NORAD_CAT_ID":"46341","MEAN_MOTION":"15.06400294","OBJECT_ID":"2020-062S","GP_ID":"192179171","ARG_OF_PERICENTER":"88.8127","EPOCH":"2021-12-21T16:25:22.255968","MEAN_ELEMENT_THEORY":"SGP4","TLE_LINE2":"2 46341  53.0529  65.4834 0001433  88.8127 271.3026 15.06400294 72639","SITE":"AFETR","MEAN_ANOMALY":"271.3026","COUNTRY_CODE":"US","CLASSIFICATION_TYPE":"U","SEMIMAJOR_AXIS":"6925.348","FILE":"3246784","ECCENTRICITY":"0.00014330"},{"TLE_LINE1":"1 46342U 20062T   21355.73036245 -.00001160  00000-0 -58983-4 0  9992","MEAN_MOTION_DDOT":"0.0000000000000","PERIOD":"95.592","OBJECT_TYPE":"PAYLOAD","REF_FRAME":"TEME","DECAY_DATE":null,"OBJECT_NAME":"STARLINK-1762","REV_AT_EPOCH":"7235","RCS_SIZE":"LARGE","RA_OF_ASC_NODE":"85.2752","CENTER_NAME":"EARTH","APOAPSIS":"548.083","MEAN_MOTION_DOT":"-0.00001160","BSTAR":"-0.00005898300000","INCLINATION":"53.0531","TIME_SYSTEM":"UTC","LAUNCH_DATE":"2020-09-03","FILE":"3246784","SEMIMAJOR_AXIS":"6925.353","CLASSIFICATION_TYPE":"U","ECCENTRICITY":"0.00012490","COUNTRY_CODE":"US","MEAN_ELEMENT_THEORY":"SGP4","EPOCH":"2021-12-21T17:31:43.315680","ARG_OF_PERICENTER":"90.8851","GP_ID":"192177420","MEAN_ANOMALY":"269.2281","TLE_LINE2":"2 46342  53.0531  85.2752 0001249  90.8851 269.2281 15.06398640 72353","SITE":"AFETR","ELEMENT_SET_NO":"999","EPHEMERIS_TYPE":"0","OBJECT_ID":"2020-062T","MEAN_MOTION":"15.06398640","NORAD_CAT_ID":"46342","PERIAPSIS":"546.353"},{"REF_FRAME":"TEME","OBJECT_TYPE":"PAYLOAD","PERIOD":"95.592","MEAN_MOTION_DDOT":"0.0000000000000","TLE_LINE1":"1 46343U 20062U   21355.52579450  .00001866  00000-0  14412-3 0  9999","REV_AT_EPOCH":"7278","OBJECT_NAME":"STARLINK-1764","DECAY_DATE":null,"MEAN_MOTION_DOT":"0.00001866","APOAPSIS":"548.081","CENTER_NAME":"EARTH","RA_OF_ASC_NODE":"66.2009","RCS_SIZE":"LARGE","LAUNCH_DATE":"2020-09-03","TIME_SYSTEM":"UTC","INCLINATION":"53.0545","BSTAR":"0.00014412000000","ECCENTRICITY":"0.00012880","CLASSIFICATION_TYPE":"U","SEMIMAJOR_AXIS":"6925.324","FILE":"3246605","COUNTRY_CODE":"US","SITE":"AFETR","TLE_LINE2":"2 46343  53.0545  66.2009 0001288  77.2604 282.8529 15.06407854 72782","MEAN_ANOMALY":"282.8529","GP_ID":"192152444","ARG_OF_PERICENTER":"77.2604","MEAN_ELEMENT_THEORY":"SGP4","EPOCH":"2021-12-21T12:37:08.644800","PERIAPSIS":"546.298","NORAD_CAT_ID":"46343","MEAN_MOTION":"15.06407854","OBJECT_ID":"2020-062U","EPHEMERIS_TYPE":"0","ELEMENT_SET_NO":"999"},{"ARG_OF_PERICENTER":"82.7178","GP_ID":"192178419","MEAN_ELEMENT_THEORY":"SGP4","EPOCH":"2021-12-21T16:14:45.354912","TLE_LINE2":"2 46344  53.0539  65.5090 0001383  82.7178 277.3968 15.06405979 72626","SITE":"AFETR","MEAN_ANOMALY":"277.3968","EPHEMERIS_TYPE":"0","ELEMENT_SET_NO":"999","NORAD_CAT_ID":"46344","PERIAPSIS":"546.237","OBJECT_ID":"2020-062V","MEAN_MOTION":"15.06405979","CLASSIFICATION_TYPE":"U","FILE":"3246784","SEMIMAJOR_AXIS":"6925.330","ECCENTRICITY":"0.00013830","COUNTRY_CODE":"US","RA_OF_ASC_NODE":"65.5090","CENTER_NAME":"EARTH","RCS_SIZE":"LARGE","MEAN_MOTION_DOT":"0.00000888","APOAPSIS":"548.153","TIME_SYSTEM":"UTC","LAUNCH_DATE":"2020-09-03","BSTAR":"0.00007847500000","INCLINATION":"53.0539","MEAN_MOTION_DDOT":"0.0000000000000","PERIOD":"95.592","TLE_LINE1":"1 46344U 20062V   21355.67691383  .00000888  00000-0  78475-4 0  9999","OBJECT_TYPE":"PAYLOAD","REF_FRAME":"TEME","DECAY_DATE":null,"OBJECT_NAME":"STARLINK-1765","REV_AT_EPOCH":"7262"},{"CLASSIFICATION_TYPE":"U","FILE":"3246784","SEMIMAJOR_AXIS":"6925.355","ECCENTRICITY":"0.00012590","COUNTRY_CODE":"US","ARG_OF_PERICENTER":"84.6482","GP_ID":"192178672","MEAN_ELEMENT_THEORY":"SGP4","EPOCH":"2021-12-21T17:52:56.948448","TLE_LINE2":"2 46345  53.0541  85.2004 0001259  84.6482 275.4650 15.06398052 72355","SITE":"AFETR","MEAN_ANOMALY":"275.4650","EPHEMERIS_TYPE":"0","ELEMENT_SET_NO":"999","NORAD_CAT_ID":"46345","PERIAPSIS":"546.348","OBJECT_ID":"2020-062W","MEAN_MOTION":"15.06398052","MEAN_MOTION_DDOT":"0.0000000000000","PERIOD":"95.592","TLE_LINE1":"1 46345U 20062W   21355.74510357 -.00002425  00000-0 -14394-3 0  9999","OBJECT_TYPE":"PAYLOAD","REF_FRAME":"TEME","DECAY_DATE":null,"OBJECT_NAME":"STARLINK-1767","REV_AT_EPOCH":"7235","RA_OF_ASC_NODE":"85.2004","CENTER_NAME":"EARTH","RCS_SIZE":"LARGE","MEAN_MOTION_DOT":"-0.00002425","APOAPSIS":"548.091","TIME_SYSTEM":"UTC","LAUNCH_DATE":"2020-09-03","BSTAR":"-0.00014394000000","INCLINATION":"53.0541"}];
